IRIDIUM 8 [+]           
1 24792U 97020A   16232.48777635  .00000002  00000-0 -65014-5 0  9997
2 24792  86.3931  84.8355 0002098  80.3273 279.8160 14.34217476  9956
IRIDIUM 7 [+]           
1 24793U 97020B   16232.55121145  .00000084  00000-0  23103-4 0  9996
2 24793  86.3934  85.0755 0002147  85.4242 274.7199 14.34218049  9968
IRIDIUM 6 [+]           
1 24794U 97020C   16232.54476373  .00000085  00000-0  23459-4 0  9997
2 24794  86.3932  85.0157 0002111  86.2153 273.9285 14.34219534  9961
IRIDIUM 5 [+]           
1 24795U 97020D   16232.53853387  .00000077  00000-0  20585-4 0  9999
2 24795  86.3918  85.0456 0002188  89.7877 270.3569 14.34215852 10049
IRIDIUM 4 [-]           
1 24796U 97020E   16232.51757071  .00000120  00000-0  35021-4 0  9991
2 24796  86.3924  84.1785 0002147  85.1551 337.6459 14.35097324 10033
IRIDIUM 914 [-]         
1 24836U 97030A   16232.55564586  .00000083  00000-0  20613-4 0  9997
2 24836  86.3923 101.7352 0003200  58.3340 301.8170 14.38697637  5574
IRIDIUM 12 [+]          
1 24837U 97030B   16232.30225918  .00000178  00000-0  56531-4 0  9997
2 24837  86.3967 116.3260 0002228  83.2746  54.4876 14.34215613  3678
IRIDIUM 10 [+]          
1 24839U 97030D   16232.28974501  .00000187  00000-0  59810-4 0  9998
2 24839  86.3966 116.3126 0002221  82.3715  56.5090 14.34217789  3687
IRIDIUM 13 [+]          
1 24840U 97030E   16232.28188852  .00000185  00000-0  58924-4 0  9999
2 24840  86.3968 116.4496 0002367  84.8082 275.3384 14.34218022  3674
IRIDIUM 16 [-]          
1 24841U 97030F   16232.27291190  .00000104  00000-0  28463-4 0  9995
2 24841  86.4045 116.4889 0002595 141.4980 218.6402 14.36648882  4235
IRIDIUM 911 [-]         
1 24842U 97030G   16232.23954294  .00000163  00000-0  41056-4 0  9991
2 24842  86.4473 117.4659 0015377  21.7582 338.4270 14.44879449  9342
IRIDIUM 15 [+]          
1 24869U 97034A   16232.32337288  .00000191  00000-0  61051-4 0  9990
2 24869  86.4004 148.3145 0002023  85.0556 275.0871 14.34214391   647
IRIDIUM 17 [-]          
1 24870U 97034B   16232.31990125  .00000170  00000-0  52105-4 0  9993
2 24870  86.4010 146.6789 0003712 103.3791 256.7820 14.35692981   862
IRIDIUM 920 [-]         
1 24871U 97034C   16232.25937161  .00000104  00000-0  27193-4 0  9994
2 24871  86.4007 133.6244 0009600 251.4968 108.5188 14.39417599  2917
IRIDIUM 18 [+]          
1 24872U 97034D   16232.30434422  .00000192  00000-0  61445-4 0  9998
2 24872  86.4011 148.2745 0002156  84.6600 275.4841 14.34214645   649
IRIDIUM 921 [-]         
1 24873U 97034E   16232.45722792  .00000841  00000-0  48669-4 0  9999
2 24873  86.3950 208.4770 0010060  58.1870 302.0346 15.10654382 42538
IRIDIUM 26 [-]          
1 24903U 97043A   16232.49611942  .00000085  00000-0  22732-4 0  9994
2 24903  86.3973  21.1060 0002053  95.4504 328.4081 14.35208717994706
IRIDIUM 25 [+]          
1 24904U 97043B   16232.46196887  .00000015  00000-0 -18162-5 0  9995
2 24904  86.3965  21.5716 0002029  94.7293 265.4135 14.34214260994574
IRIDIUM 46 [+]          
1 24905U 97043C   16232.47463314  .00000012  00000-0 -28174-5 0  9990
2 24905  86.3969  22.0930 0001953  88.0865 272.0555 14.34215110994585
IRIDIUM 23 [+]          
1 24906U 97043D   16232.47978081  .00000010  00000-0 -34840-5 0  9998
2 24906  86.3979  21.5663 0001977  91.0869 328.2167 14.34215571994593
IRIDIUM 22 [+]          
1 24907U 97043E   16232.51268580  .00000009  00000-0 -39193-5 0  9994
2 24907  86.3974  22.1839 0002085  92.5592 267.5843 14.34214972994580
DUMMY MASS 1 [-]        
1 24925U 97048A   16231.91815489  .00000088  00000-0  69701-5 0  9992
2 24925  86.3391 182.7537 0008574  45.2258 314.9662 14.85090171 26721
DUMMY MASS 2 [-]        
1 24926U 97048B   16231.97689939  .00000087  00000-0  69549-5 0  9997
2 24926  86.3390 183.7915 0009575  49.8617 310.3444 14.84858711 26586
IRIDIUM 29 [-]          
1 24944U 97051A   16232.51597914  .00000110  00000-0  31848-4 0  9990
2 24944  86.3930  53.0717 0002400  83.4140 276.7329 14.34592171991173
IRIDIUM 32 [+]          
1 24945U 97051B   16232.47166732 -.00000041  00000-0 -21724-4 0  9993
2 24945  86.3928  53.2417 0002000  83.3814 276.7609 14.34215534991179
IRIDIUM 33 [-]          
1 24946U 97051C   16232.49954869  .00000087  00000-0  24454-4 0  9993
2 24946  86.3844  53.0126 0009279 135.2144 224.9802 14.33504878990811
IRIDIUM 28 [-]          
1 24948U 97051E   16232.51402603  .00000089  00000-0  24194-4 0  9995
2 24948  86.3935  52.4765 0002151  99.4677 260.6763 14.35495938991294
IRIDIUM 30 [+]          
1 24949U 97051F   16232.46532778 -.00000035  00000-0 -19519-4 0  9995
2 24949  86.3928  53.3355 0001933  83.0206 277.1209 14.34215138991150
IRIDIUM 31 [+]          
1 24950U 97051G   16232.52875874  .00000011  00000-0 -32889-5 0  9990
2 24950  86.3929  53.3086 0002234  87.0819 273.0632 14.34215106991175
IRIDIUM 19 [+]          
1 24965U 97056A   16232.09450574 -.00000015  00000-0 -12551-4 0  9997
2 24965  86.3931  85.0092 0002107  81.0370 279.1065 14.34216555989250
IRIDIUM 35 [+]          
1 24966U 97056B   16232.17700561  .00000017  00000-0 -10672-5 0  9995
2 24966  86.3931  84.9708 0002087  81.1348 279.0084 14.34217607989244
IRIDIUM 36 [-]          
1 24967U 97056C   16232.52981214  .00000075  00000-0  19284-4 0  9991
2 24967  86.3939  84.1179 0002296  87.3526 272.7933 14.35545802989587
IRIDIUM 37 [+]          
1 24968U 97056D   16232.57023198  .00000028  00000-0  29934-5 0  9997
2 24968  86.3932  84.9840 0002174  84.4414 275.7030 14.34217384989304
IRIDIUM 34 [+]          
1 24969U 97056E   16232.17065434  .00000013  00000-0 -24535-5 0  9990
2 24969  86.3933  85.0879 0002138  81.6349 278.5090 14.34217198989249
IRIDIUM 43 [+]          
1 25039U 97069A   16232.29800194  .00000224  00000-0  72780-4 0  9993
2 25039  86.4028 148.2034 0002402  82.6654 277.4814 14.34216136983048
IRIDIUM 41 [+]          
1 25040U 97069B   16232.36142738  .00000191  00000-0  61070-4 0  9999
2 25040  86.4010 148.1360 0002104  85.5904 274.5532 14.34214691983051
IRIDIUM 40 [+]          
1 25041U 97069C   16232.17749201  .00000200  00000-0  64490-4 0  9997
2 25041  86.4024 148.4358 0003263  79.5386 280.6177 14.34219100983043
IRIDIUM 39 [B]          
1 25042U 97069D   16232.32733534  .00000161  00000-0  39460-4 0  9992
2 25042  86.3968 148.0056 0017003 233.2002 126.7641 14.46076512983094
IRIDIUM 38 [-]          
1 25043U 97069E   16232.28905716  .00000145  00000-0  43210-4 0  9991
2 25043  86.4008 145.7160 0002178 118.5024 241.6392 14.35967527983405
IRIDIUM 42 [-]          
1 25077U 97077A   16232.29449311  .00000096  00000-0  27022-4 0  9990
2 25077  86.4013 148.1639 0002170  89.3901 270.7544 14.34496119978912
IRIDIUM 44 [-]          
1 25078U 97077B   16232.30423776  .00000091  00000-0  23515-4 0  9998
2 25078  86.4001 138.4876 0002667 125.0663 235.0786 14.38053157980245
IRIDIUM 45 [+]          
1 25104U 97082A   16232.45264819 -.00000039  00000-0 -21020-4 0  9994
2 25104  86.3926  53.3802 0001734 120.9173 239.2193 14.34214653977125
IRIDIUM 24 [-]          
1 25105U 97082B   16232.42683786  .00000108  00000-0  28066-4 0  9992
2 25105  86.3960   2.8775 0009540 255.6096 104.4044 14.39795838979433
IRIDIUM 47 [+]          
1 25106U 97082C   16232.48099040  .00000010  00000-0 -35658-5 0  9992
2 25106  86.3963  21.4443 0001965  90.8090 269.3331 14.34214607977121
IRIDIUM 49 [+]          
1 25108U 97082E   16232.50635390  .00000009  00000-0 -38904-5 0  9996
2 25108  86.3965  21.5284 0002030  92.7046 332.8780 14.34214672977132
IRIDIUM 52 [+]          
1 25169U 98010A   16232.45313600  .00000168  00000-0  53048-4 0  9996
2 25169  86.3970 116.5447 0002271  83.7243 276.4211 14.34217694968530
IRIDIUM 56 [+]          
1 25170U 98010B   16232.23746928  .00000230  00000-0  75106-4 0  9996
2 25170  86.3977 116.7382 0001960  86.8845 273.2575 14.34219376968486
IRIDIUM 54 [+]          
1 25171U 98010C   16232.26920811  .00000171  00000-0  53877-4 0  9990
2 25171  86.3972 116.6410 0002251  83.0267 277.1185 14.34215936968651
IRIDIUM 50 [+]          
1 25172U 98010D   16232.30091220  .00000183  00000-0  58179-4 0  9992
2 25172  86.3971 116.5856 0002259  81.1686 278.9766 14.34218050968492
IRIDIUM 53 [+]          
1 25173U 98010E   16232.25017410  .00000172  00000-0  54276-4 0  9998
2 25173  86.3971 116.6125 0002252  83.5437 276.6015 14.34218220968497
IRIDIUM 51 [S]          
1 25262U 98018A   16232.12622084  .00000141  00000-0  43202-4 0  9993
2 25262  86.3929  85.2905 0002061  80.8382 279.3047 14.34220983967867
IRIDIUM 61 [+]          
1 25263U 98018B   16232.15793625  .00000042  00000-0  80275-5 0  9999
2 25263  86.3933  85.1225 0002134  84.5911 275.5528 14.34217154963579
IRIDIUM 55 [+]          
1 25272U 98019A   16232.50972405 -.00000024  00000-0 -15542-4 0  9990
2 25272  86.3928  53.1359 0001996  84.5797 275.5626 14.34215475962823
IRIDIUM 57 [-]          
1 25273U 98019B   16232.55366775  .00000070  00000-0  18062-4 0  9992
2 25273  86.3933  53.4116 0002245  87.0491 273.0962 14.34230700962836
IRIDIUM 58 [+]          
1 25274U 98019C   16232.49069620 -.00000037  00000-0 -20243-4 0  9994
2 25274  86.3933  53.6271 0001926  83.3375 276.8040 14.34215266962823
IRIDIUM 59 [+]          
1 25275U 98019D   16232.49704351 -.00000042  00000-0 -22008-4 0  9999
2 25275  86.3928  53.4938 0002045  81.2263 278.9164 14.34214937962826
IRIDIUM 60 [+]          
1 25276U 98019E   16232.50338275 -.00000034  00000-0 -19060-4 0  9995
2 25276  86.3926  53.1223 0002004  84.8959 275.2465 14.34215234962820
IRIDIUM 62 [+]          
1 25285U 98021A   16232.46502076  .00000015  00000-0 -18479-5 0  9997
2 25285  86.3996 350.0436 0002041  95.2857 264.8571 14.34214841961774
IRIDIUM 63 [-]          
1 25286U 98021B   16232.49425744  .00000091  00000-0  25059-4 0  9991
2 25286  86.4027 350.4203 0002223  86.2356 320.5368 14.34606544961794
